CCSDS_OMM_VERS = 2.0
CREATION_DATE  = 
ORIGINATOR     = 

OBJECT_NAME    = STARLINK-36767
OBJECT_ID      = 2026-032T
CENTER_NAME    = EARTH
REF_FRAME      = TEME
TIME_SYSTEM    = UTC
MEAN_ELEMENT_THEORY = SGP/SGP4

EPOCH          = 2026-03-03T12:00:00.998784
MEAN_MOTION    = 15.75151939
ECCENTRICITY   = .0001642
INCLINATION    = 97.2840
RA_OF_ASC_NODE = 248.7193
ARG_OF_PERICENTER = 77.5404
MEAN_ANOMALY   = 207.0034

EPHEMERIS_TYPE = 0
CLASSIFICATION_TYPE = U
NORAD_CAT_ID   = 67814
ELEMENT_SET_NO = 999
REV_AT_EPOCH   = 378
BSTAR          = .48465E-3
MEAN_MOTION_DOT = .72658E-3
MEAN_MOTION_DDOT = 0

CCSDS_OMM_VERS = 2.0
CREATION_DATE  = 
ORIGINATOR     = 

OBJECT_NAME    = STARLINK-36797
OBJECT_ID      = 2026-032U
CENTER_NAME    = EARTH
REF_FRAME      = TEME
TIME_SYSTEM    = UTC
MEAN_ELEMENT_THEORY = SGP/SGP4

EPOCH          = 2026-03-03T12:00:00.998784
MEAN_MOTION    = 15.75241744
ECCENTRICITY   = .0001153
INCLINATION    = 97.2848
RA_OF_ASC_NODE = 248.7406
ARG_OF_PERICENTER = 92.8194
MEAN_ANOMALY   = 241.6739

EPHEMERIS_TYPE = 0
CLASSIFICATION_TYPE = U
NORAD_CAT_ID   = 67815
ELEMENT_SET_NO = 999
REV_AT_EPOCH   = 372
BSTAR          = -.28419E-3
MEAN_MOTION_DOT = -.42402E-3
MEAN_MOTION_DDOT = 0

CCSDS_OMM_VERS = 2.0
CREATION_DATE  = 
ORIGINATOR     = 

OBJECT_NAME    = STARLINK-36343
OBJECT_ID      = 2026-032V
CENTER_NAME    = EARTH
REF_FRAME      = TEME
TIME_SYSTEM    = UTC
MEAN_ELEMENT_THEORY = SGP/SGP4

EPOCH          = 2026-03-03T11:58:01.117920
MEAN_MOTION    = 15.80894157
ECCENTRICITY   = .0001992
INCLINATION    = 97.2834
RA_OF_ASC_NODE = 248.7510
ARG_OF_PERICENTER = 66.9414
MEAN_ANOMALY   = 293.2064

EPHEMERIS_TYPE = 0
CLASSIFICATION_TYPE = U
NORAD_CAT_ID   = 67816
ELEMENT_SET_NO = 999
REV_AT_EPOCH   = 381
BSTAR          = .97832E-3
MEAN_MOTION_DOT = .192127E-2
MEAN_MOTION_DDOT = 0

CCSDS_OMM_VERS = 2.0
CREATION_DATE  = 
ORIGINATOR     = 

OBJECT_NAME    = STARLINK-36756
OBJECT_ID      = 2026-032W
CENTER_NAME    = EARTH
REF_FRAME      = TEME
TIME_SYSTEM    = UTC
MEAN_ELEMENT_THEORY = SGP/SGP4

EPOCH          = 2026-03-03T12:00:00.998784
MEAN_MOTION    = 15.76944903
ECCENTRICITY   = .0001514
INCLINATION    = 97.2846
RA_OF_ASC_NODE = 248.7601
ARG_OF_PERICENTER = 64.3967
MEAN_ANOMALY   = 318.7900

EPHEMERIS_TYPE = 0
CLASSIFICATION_TYPE = U
NORAD_CAT_ID   = 67817
ELEMENT_SET_NO = 999
REV_AT_EPOCH   = 378
BSTAR          = -.13081E-1
MEAN_MOTION_DOT = -.1845096E-1
MEAN_MOTION_DDOT = 0

CCSDS_OMM_VERS = 2.0
CREATION_DATE  = 
ORIGINATOR     = 

OBJECT_NAME    = STARLINK-36346
OBJECT_ID      = 2026-032X
CENTER_NAME    = EARTH
REF_FRAME      = TEME
TIME_SYSTEM    = UTC
MEAN_ELEMENT_THEORY = SGP/SGP4

EPOCH          = 2026-03-03T11:50:09.062016
MEAN_MOTION    = 15.80920466
ECCENTRICITY   = .0002264
INCLINATION    = 97.2827
RA_OF_ASC_NODE = 248.7588
ARG_OF_PERICENTER = 85.7763
MEAN_ANOMALY   = 274.3764

EPHEMERIS_TYPE = 0
CLASSIFICATION_TYPE = U
NORAD_CAT_ID   = 67818
ELEMENT_SET_NO = 999
REV_AT_EPOCH   = 381
BSTAR          = .10817E-2
MEAN_MOTION_DOT = .213215E-2
MEAN_MOTION_DDOT = 0

CCSDS_OMM_VERS = 2.0
CREATION_DATE  = 
ORIGINATOR     = 

OBJECT_NAME    = STARLINK-36788
OBJECT_ID      = 2026-032Y
CENTER_NAME    = EARTH
REF_FRAME      = TEME
TIME_SYSTEM    = UTC
MEAN_ELEMENT_THEORY = SGP/SGP4

EPOCH          = 2026-03-03T12:00:00.998784
MEAN_MOTION    = 15.75154148
ECCENTRICITY   = .0001627
INCLINATION    = 97.2845
RA_OF_ASC_NODE = 248.7352
ARG_OF_PERICENTER = 76.4513
MEAN_ANOMALY   = 246.0805

EPHEMERIS_TYPE = 0
CLASSIFICATION_TYPE = U
NORAD_CAT_ID   = 67819
ELEMENT_SET_NO = 999
REV_AT_EPOCH   = 372
BSTAR          = .55923E-3
MEAN_MOTION_DOT = .83978E-3
MEAN_MOTION_DDOT = 0

CCSDS_OMM_VERS = 2.0
CREATION_DATE  = 
ORIGINATOR     = 

OBJECT_NAME    = STARLINK-36353
OBJECT_ID      = 2026-032Z
CENTER_NAME    = EARTH
REF_FRAME      = TEME
TIME_SYSTEM    = UTC
MEAN_ELEMENT_THEORY = SGP/SGP4

EPOCH          = 2026-03-03T12:00:00.998784
MEAN_MOTION    = 15.75172719
ECCENTRICITY   = .0001532
INCLINATION    = 97.2845
RA_OF_ASC_NODE = 248.7439
ARG_OF_PERICENTER = 82.2243
MEAN_ANOMALY   = 262.2979

EPHEMERIS_TYPE = 0
CLASSIFICATION_TYPE = U
NORAD_CAT_ID   = 67820
ELEMENT_SET_NO = 999
REV_AT_EPOCH   = 378
BSTAR          = .24615E-3
MEAN_MOTION_DOT = .36716E-3
MEAN_MOTION_DDOT = 0

CCSDS_OMM_VERS = 2.0
CREATION_DATE  = 
ORIGINATOR     = 

OBJECT_NAME    = STARLINK-36644
OBJECT_ID      = 2026-033A
CENTER_NAME    = EARTH
REF_FRAME      = TEME
TIME_SYSTEM    = UTC
MEAN_ELEMENT_THEORY = SGP/SGP4

EPOCH          = 2026-03-03T03:04:59.294784
MEAN_MOTION    = 15.82049789
ECCENTRICITY   = .0001766
INCLINATION    = 42.9976
RA_OF_ASC_NODE = 311.7368
ARG_OF_PERICENTER = 268.5320
MEAN_ANOMALY   = 91.5349

EPHEMERIS_TYPE = 0
CLASSIFICATION_TYPE = U
NORAD_CAT_ID   = 67821
ELEMENT_SET_NO = 999
REV_AT_EPOCH   = 358
BSTAR          = .68947E-3
MEAN_MOTION_DOT = .147374E-2
MEAN_MOTION_DDOT = 0

CCSDS_OMM_VERS = 2.0
CREATION_DATE  = 
ORIGINATOR     = 

OBJECT_NAME    = STARLINK-36643
OBJECT_ID      = 2026-033B
CENTER_NAME    = EARTH
REF_FRAME      = TEME
TIME_SYSTEM    = UTC
MEAN_ELEMENT_THEORY = SGP/SGP4

EPOCH          = 2026-03-03T03:03:54.319392
MEAN_MOTION    = 15.82113169
ECCENTRICITY   = .0002063
INCLINATION    = 42.9973
RA_OF_ASC_NODE = 311.7301
ARG_OF_PERICENTER = 256.1102
MEAN_ANOMALY   = 103.9541

EPHEMERIS_TYPE = 0
CLASSIFICATION_TYPE = U
NORAD_CAT_ID   = 67822
ELEMENT_SET_NO = 999
REV_AT_EPOCH   = 358
BSTAR          = .14236E-2
MEAN_MOTION_DOT = .311683E-2
MEAN_MOTION_DDOT = 0

CCSDS_OMM_VERS = 2.0
CREATION_DATE  = 
ORIGINATOR     = 

OBJECT_NAME    = STARLINK-36646
OBJECT_ID      = 2026-033C
CENTER_NAME    = EARTH
REF_FRAME      = TEME
TIME_SYSTEM    = UTC
MEAN_ELEMENT_THEORY = SGP/SGP4

EPOCH          = 2026-03-03T03:02:49.664544
MEAN_MOTION    = 15.82104549
ECCENTRICITY   = .000198
INCLINATION    = 42.9977
RA_OF_ASC_NODE = 311.7236
ARG_OF_PERICENTER = 254.7250
MEAN_ANOMALY   = 105.3403

EPHEMERIS_TYPE = 0
CLASSIFICATION_TYPE = U
NORAD_CAT_ID   = 67823
ELEMENT_SET_NO = 999
REV_AT_EPOCH   = 358
BSTAR          = .13269E-2
MEAN_MOTION_DOT = .289615E-2
MEAN_MOTION_DDOT = 0

CCSDS_OMM_VERS = 2.0
CREATION_DATE  = 
ORIGINATOR     = 

OBJECT_NAME    = STARLINK-36647
OBJECT_ID      = 2026-033D
CENTER_NAME    = EARTH
REF_FRAME      = TEME
TIME_SYSTEM    = UTC
MEAN_ELEMENT_THEORY = SGP/SGP4

EPOCH          = 2026-03-03T03:01:44.893920
MEAN_MOTION    = 15.82106975
ECCENTRICITY   = .0002033
INCLINATION    = 42.9973
RA_OF_ASC_NODE = 311.7177
ARG_OF_PERICENTER = 258.2573
MEAN_ANOMALY   = 101.8070

EPHEMERIS_TYPE = 0
CLASSIFICATION_TYPE = U
NORAD_CAT_ID   = 67824
ELEMENT_SET_NO = 999
REV_AT_EPOCH   = 358
BSTAR          = .13358E-2
MEAN_MOTION_DOT = .291666E-2
MEAN_MOTION_DDOT = 0

CCSDS_OMM_VERS = 2.0
CREATION_DATE  = 
ORIGINATOR     = 

OBJECT_NAME    = STARLINK-36648
OBJECT_ID      = 2026-033E
CENTER_NAME    = EARTH
REF_FRAME      = TEME
TIME_SYSTEM    = UTC
MEAN_ELEMENT_THEORY = SGP/SGP4

EPOCH          = 2026-03-03T03:00:40.211424
MEAN_MOTION    = 15.82080927
ECCENTRICITY   = .0001844
INCLINATION    = 42.9976
RA_OF_ASC_NODE = 311.7117
ARG_OF_PERICENTER = 256.6404
MEAN_ANOMALY   = 103.4262

EPHEMERIS_TYPE = 0
CLASSIFICATION_TYPE = U
NORAD_CAT_ID   = 67825
ELEMENT_SET_NO = 999
REV_AT_EPOCH   = 358
BSTAR          = .10194E-2
MEAN_MOTION_DOT = .220334E-2
MEAN_MOTION_DDOT = 0

