STARLINK-36767          
1 67814U 26032T   26062.50001156  .00072658  00000+0  48465-3 0  9990
2 67814  97.2840 248.7193 0001642  77.5404 207.0034 15.75151939  3782
STARLINK-36797          
1 67815U 26032U   26062.50001156 -.00042402  00000+0 -28419-3 0  9994
2 67815  97.2848 248.7406 0001153  92.8194 241.6739 15.75241744  3725
STARLINK-36343          
1 67816U 26032V   26062.49862405  .00192127  00000+0  97832-3 0  9998
2 67816  97.2834 248.7510 0001992  66.9414 293.2064 15.80894157  3817
STARLINK-36756          
1 67817U 26032W   26062.50001156 -.01845096  00000+0 -13081-1 0  9994
2 67817  97.2846 248.7601 0001514  64.3967 318.7900 15.76944903  3785
STARLINK-36346          
1 67818U 26032X   26062.49316044  .00213215  00000+0  10817-2 0  9992
2 67818  97.2827 248.7588 0002264  85.7763 274.3764 15.80920466  3815
STARLINK-36788          
1 67819U 26032Y   26062.50001156  .00083978  00000+0  55923-3 0  9999
2 67819  97.2845 248.7352 0001627  76.4513 246.0805 15.75154148  3729
STARLINK-36353          
1 67820U 26032Z   26062.50001156  .00036716  00000+0  24615-3 0  9993
2 67820  97.2845 248.7439 0001532  82.2243 262.2979 15.75172719  3789
STARLINK-36644          
1 67821U 26033A   26062.12846406  .00147374  00000+0  68947-3 0  9997
2 67821  42.9976 311.7368 0001766 268.5320  91.5349 15.82049789  3588
STARLINK-36643          
1 67822U 26033B   26062.12771203  .00311683  00000+0  14236-2 0  9997
2 67822  42.9973 311.7301 0002063 256.1102 103.9541 15.82113169  3581
STARLINK-36646          
1 67823U 26033C   26062.12696371  .00289615  00000+0  13269-2 0  9994
2 67823  42.9977 311.7236 0001980 254.7250 105.3403 15.82104549  3583
STARLINK-36647          
1 67824U 26033D   26062.12621405  .00291666  00000+0  13358-2 0  9999
2 67824  42.9973 311.7177 0002033 258.2573 101.8070 15.82106975  3587
STARLINK-36648          
1 67825U 26033E   26062.12546541  .00220334  00000+0  10194-2 0  9996
2 67825  42.9976 311.7117 0001844 256.6404 103.4262 15.82080927  3588
